[
  "TORO                    \r\n1 60530U 24149BQ  26204.21305082  .00001874  00000+0  16984-3 0  9999\r\n2 60530  97.6768 278.2078 0001469 109.9607 250.1772 14.96535917105342\r\n",
  "TORO3                   \r\n1 68481U 26067BT  26204.71336829  .00000632  00000+0  67535-4 0  9991\r\n2 68481  97.7693 162.5635 0002835 162.4299 197.7018 14.92176100 17179\r\n",
  "SATORO-T3               \r\n1 64589U 25135BP  26204.78859330  .00001668  00000+0  15998-3 0  9990\r\n2 64589  97.7741 318.9500 0004556 193.2855 166.8246 14.94456122 59373\r\n",
  "GEMINI-POLLUX           \r\n1 69000U 26100W   26204.53756396  .00001845  00000+0  18588-3 0  9992\r\n2 69000  97.7279 101.3350 0002373 100.1686 259.9801 14.92347141 12124\r\n",
  "FORMOSAT-2 (ROCSAT 2)   \r\n1 28254U 04018A   26204.87228639 -.00000244  00000+0 -13364-3 0  9994\r\n2 28254  98.8459 171.2281 0001513 177.5580 201.7894 14.01248280133896\r\n",
  "FORMOSAT-3 FM6          \r\n1 29047U 06011A   26204.37259917  .00000227  00000+0  99897-4 0  9993\r\n2 29047  71.9751 237.1691 0048220 177.5419 182.5966 14.31422632 59585\r\n",
  "FORMOSAT-3 FM1          \r\n1 29048U 06011B   26204.78596212  .00000285  00000+0  12211-3 0  9999\r\n2 29048  71.9661 144.6996 0040963 138.9740 221.4492 14.31412272 62018\r\n",
  "FORMOSAT-3 FM5          \r\n1 29049U 06011C   26204.62616333  .00000339  00000+0  14240-3 0  9994\r\n2 29049  72.0202 329.3623 0032870 145.9827 214.3427 14.31429411 57884\r\n",
  "FORMOSAT-3 FM3          \r\n1 29050U 06011D   26204.53034345  .00000839  00000+0  15674-3 0  9990\r\n2 29050  72.0111 233.5640 0044481 220.7223 139.0606 14.67027086 81704\r\n",
  "FORMOSAT-3 FM4          \r\n1 29051U 06011E   26204.51301358  .00000303  00000+0  12644-3 0  9990\r\n2 29051  72.0015 227.0653 0065086  25.8984 334.5386 14.31562009 60469\r\n",
  "FORMOSAT-3 FM2          \r\n1 29052U 06011F   26204.71962159  .00000284  00000+0  12121-3 0  9993\r\n2 29052  72.0338 307.5714 0037139  97.1317 263.4047 14.31643655 58019\r\n",
  "PACE                    \r\n1 40022U 14033N   26204.75092402  .00004862  00000+0  29418-3 0  9998\r\n2 40022  98.1256 211.8782 0008062  94.7275 265.4874 15.11133054658559\r\n",
  "FORMOSAT-5              \r\n1 42920U 17049A   26204.81019921  .00000111  00000+0  39269-4 0  9998\r\n2 42920  98.2240 279.3040 0010817 336.5401  23.5299 14.50894505471988\r\n",
  "FORMOSAT 7-3            \r\n1 44343U 19036E   26204.52954666  .00004214  00000+0  23160-3 0  9999\r\n2 44343  23.9992 288.3662 0000704  32.7900 327.2647 15.10040783388741\r\n",
  "FORMOSAT 7-1            \r\n1 44349U 19036L   26204.51777042  .00002197  00000+0  16218-3 0  9999\r\n2 44349  23.9968 147.4344 0000522 221.1388 138.9073 14.96636453390105\r\n",
  "FORMOSAT 7-4            \r\n1 44350U 19036M   26204.34036067  .00002065  00000+0  15089-3 0  9996\r\n2 44350  23.9964 210.7427 0000788 242.4190 117.6231 14.96631795389494\r\n",
  "FORMOSAT 7-2            \r\n1 44351U 19036N   26204.29605652  .00002044  00000+0  14909-3 0  9990\r\n2 44351  23.9976 265.3596 0000277 224.6275 135.4203 14.96631896389006\r\n",
  "FORMOSAT 7-6            \r\n1 44353U 19036Q   26204.82898920  .00002468  00000+0  18536-3 0  9993\r\n2 44353  23.9980  82.5700 0001203 157.4522 202.6032 14.96640453387315\r\n",
  "FORMOSAT 7-5            \r\n1 44358U 19036V   26204.87322573  .00002516  00000+0  18955-3 0  9998\r\n2 44358  23.9996  21.0286 0000010 107.2645 252.7857 14.96621180387854\r\n",
  "FORMOSAT-7R (TRITON)    \r\n1 58017U 23155B   26204.67616245  .00001120  00000+0  11839-3 0  9996\r\n2 58017  97.8347 285.8144 0001055  48.5133 311.6175 14.91212135151660\r\n",
  "NIGHTJAR                \r\n1 60535U 24149BV  26204.16917193  .00003592  00000+0  29965-3 0  9992\r\n2 60535  97.6852 280.3732 0002826  80.7230 279.4312 14.99214174148262\r\n",
  "IRIS-F3                 \r\n1 62619U 25009L   26204.68042716  .00009946  00000+0  37209-3 0  9999\r\n2 62619  97.4038 285.2452 0006507 179.2310 180.8940 15.27499295 84393\r\n",
  "IRIS-F2                 \r\n1 62684U 25009CD  26204.17349076  .00015949  00000+0  59385-3 0  9993\r\n2 62684  97.3876 283.5988 0005082 204.1288 155.9714 15.27545762141957\r\n",
  "FORMOSAT-8A             \r\n1 66666U 25276A   26204.67720806  .00001448  00000+0  11874-3 0  9992\r\n2 66666  97.6546 278.3702 0006651 104.3498 255.8464 15.00773028 35538\r\n",
  "LILIUM-2                \r\n1 66679U 25276P   26204.16369772  .00001740  00000+0  88575-4 0  9999\r\n2 66679  97.4137 276.4866 0004727 230.7989 129.2826 15.18121786 35855\r\n",
  "BLACK KITE-1            \r\n1 66741U 25276CD  26204.62856034  .00008232  00000+0  37334-3 0  9991\r\n2 66741  97.4228 277.8194 0004991 205.2697 154.8295 15.21072491 33260\r\n",
  "T.MICROSAT-1            \r\n1 66766U 25276DE  26204.85179907  .00005425  00000+0  24655-3 0  9993\r\n2 66766  97.4145 278.0109 0002241  92.8142 267.3350 15.21165794 36012\r\n",
  "LILIUM-3                \r\n1 66770U 25276DJ  26204.63912013  .00002332  00000+0  11248-3 0  9995\r\n2 66770  97.4228 277.7950 0003412 112.6273 247.5323 15.19674656 35968\r\n",
  "T.MICROSAT-2            \r\n1 68433U 26067T   26204.19425736  .00004663  00000+0  23457-3 0  9998\r\n2 68433  97.4582 162.0271 0003972 311.7919  48.2975 15.17704717 17397\r\n",
  "PARUS-6U1               \r\n1 68456U 26067AS  26204.84614512  .00005622  00000+0  28086-3 0  9996\r\n2 68456  97.4567 162.6593 0003865 311.7673  48.3230 15.17861939 17492\r\n",
  "BLACK KITE-2            \r\n1 68474U 26067BL  26204.54805645  .00002089  00000+0  20784-3 0  9993\r\n2 68474  97.7568 162.3053 0003680 106.4485 253.7139 14.92727428 17158\r\n",
  "PEARL-1B                \r\n1 68980U 26100A   26204.42669501  .00001729  00000+0  18174-3 0  9999\r\n2 68980  97.7320 101.0543 0008258  37.5632 322.6162 14.90689833 12088\r\n",
  "PEARL-1A                \r\n1 68990U 26100L   26204.27004338  .00001529  00000+0  15989-3 0  9993\r\n2 68990  97.7268 100.9051 0006674  54.3808 305.8031 14.91075794 12077\r\n"
]